ONEWEB-0083             
1 45435U 20020M   23059.02183809  .00000230  00000+0  61380-3 0  9990
2 45435  87.8795 260.4849 0001607  89.1433 270.9879 13.11414211144721
ONEWEB-0083             
1 45435U 20020M   23059.55591747  .00000333  00000+0  90371-3 0  9998
2 45435  87.8796 260.3782 0001613  89.5053 270.6259 13.11414199144786
ONEWEB-0083             
1 45435U 20020M   23059.78480812  .00000410  00000+0  11209-2 0  9991
2 45435  87.8797 260.3325 0001624  89.6565 270.4749 13.11414674144815
ONEWEB-0083             
1 45435U 20020M   23060.08999642  .00000455  00000+0  12487-2 0  9990
2 45435  87.8797 260.2716 0001615  89.5158 270.6155 13.11414511144863
ONEWEB-0083             
1 45435U 20020M   23060.85296573  .00000536  00000+0  14770-2 0  9995
2 45435  87.8798 260.1192 0001630  89.7953 270.3362 13.11415447144959
ONEWEB-0083             
1 45435U 20020M   23061.61593489  .00000571  00000+0  15749-2 0  9992
2 45435  87.8801 259.9669 0001608  89.7338 270.3975 13.11415756145056
ONEWEB-0083             
1 45435U 20020M   23061.61593489  .00000571  00000+0  15749-2 0  9992
2 45435  87.8801 259.9669 0001608  89.7338 270.3975 13.11415756145067
ONEWEB-0083             
1 45435U 20020M   23062.45519980  .00000601  00000+0  16604-2 0  9994
2 45435  87.8802 259.7994 0001612  90.0833 270.0479 13.11416347145161
ONEWEB-0083             
1 45435U 20020M   23062.83668354  .00000554  00000+0  15276-2 0  9997
2 45435  87.8802 259.7233 0001609  90.0854 270.0458 13.11416766145214
